STARLINK-36852          
1 67933U 26037B   26080.16667824 -.00567951  00000+0 -10285-1 0  9993
2 67933  42.9994 129.2403 0001129 284.7244 229.4920 15.50880531  5045
STARLINK-36861          
1 67934U 26037C   26080.16667824 -.01948968  00000+0 -22421-1 0  9991
2 67934  42.9989 128.5559 0001315 281.1958 149.1300 15.64367577  5049
STARLINK-36860          
1 67935U 26037D   26080.16667824 -.01894541  00000+0 -29097-1 0  9995
2 67935  42.9991 128.8889 0001202 268.2698  28.0718 15.56845955  5044
STARLINK-36848          
1 67936U 26037E   26080.16667824 -.01897302  00000+0 -31970-1 0  9997
2 67936  42.9994 129.0070 0001255 268.6602 339.8614 15.54370507  5042
STARLINK-36370          
1 67937U 26037F   26080.16667824 -.01894196  00000+0 -28131-1 0  9991
2 67937  42.9992 128.8323 0001188 261.7210  57.7368 15.57731398  5047
STARLINK-36371          
1 67938U 26037G   26080.16667824 -.01897169  00000+0 -24249-1 0  9991
2 67938  42.9986 128.6231 0001409 273.9729 128.8605 15.61621771  5045
STARLINK-36246          
1 67939U 26037H   26080.16667824 -.01891709  00000+0 -30930-1 0  9990
2 67939  42.9991 128.9383 0001255 265.9132  10.0573 15.55170934  4959
STARLINK-36907          
1 67940U 26037J   26080.16667824 -.01948391  00000+0 -20499-1 0  9991
2 67940  42.9991 128.3907 0001019 273.7866 222.1701 15.66573406  5049
STARLINK-36927          
1 67941U 26037K   26080.16667824 -.01931516  00000+0 -22742-1 0  9996
2 67941  42.9989 128.4698 0001003 278.0207 185.7619 15.63760775  5041
STARLINK-36914          
1 67942U 26037L   26080.16667824 -.01959835  00000+0 -17337-1 0  9995
2 67942  42.9993 128.2929 0000894 268.9469 266.5633 15.70755524  5045
STARLINK-36851          
1 67943U 26037M   26080.16667824 -.01952144  00000+0 -22115-1 0  9992
2 67943  42.9989 128.4647 0001042 272.5859 193.4935 15.64758056  5049
STARLINK-36892          
1 67944U 26037N   26080.16667824 -.01950887  00000+0 -21391-1 0  9990
2 67944  42.9987 128.4150 0001058 274.8749 211.4345 15.65562878  5049
STARLINK-36908          
1 67945U 26037P   26080.16667824 -.01945349  00000+0 -20609-1 0  9999
2 67945  42.9990 128.3642 0000929 272.4874 233.9764 15.66400366  5046
STARLINK-36909          
1 67946U 26037Q   26080.16667824 -.01951599  00000+0 -15758-1 0  9993
2 67946  42.9996 128.1810 0001046 260.3951 319.4232 15.72871803  5046
STARLINK-36920          
1 67947U 26037R   26080.16667824 -.01936768  00000+0 -24744-1 0  9990
2 67947  42.9986 128.5223 0001079 275.6841 166.7242 15.61706902  5040
STARLINK-36873          
1 67948U 26037S   26080.16667824 -.01887801  00000+0 -25256-1 0  9993
2 67948  42.9993 128.5685 0001303 275.4146 148.7974 15.60436381  5049
STARLINK-36863          
1 67949U 26037T   26080.16667824 -.01946314  00000+0 -21800-1 0  9990
2 67949  42.9990 128.3693 0000958 267.6545 236.6486 15.65030739  5042
STARLINK-36887          
1 67950U 26037U   26080.16667824 -.00126323  00000+0 -21787-2 0  9996
2 67950  42.9992 129.0807 0001421 292.1338 285.0626 15.50625793  5048
STARLINK-36897          
1 67951U 26037V   26080.16667824 -.01940209  00000+0 -22635-1 0  9997
2 67951  42.9993 128.3853 0001054 277.2415 220.1714 15.64005574  5047
STARLINK-36381          
1 67952U 26037W   26080.16667824 -.01931247  00000+0 -23895-1 0  9999
2 67952  42.9992 128.4241 0001001 276.2499 205.6392 15.62512031  5041
STARLINK-36824          
1 67953U 26037X   26080.16667824 -.01787580  00000+0 -31486-1 0  9994
2 67953  42.9993 128.9285 0000885 267.5031  11.5770 15.52959366  5049
STARLINK-36869          
1 67954U 26037Y   26080.16667824 -.02217273  00000+0 -39236-1 0  9994
2 67954  42.9998 128.9197 0001526 272.7681   9.5053 15.53014121  5042
STARLINK-36872          
1 67955U 26037Z   26080.16667824 -.01947262  00000+0 -20735-1 0  9996
2 67955  42.9994 128.2491 0001011 262.4802 289.3185 15.66277256  5047
STARLINK-36918          
1 67956U 26037AA  26080.16667824 -.01926382  00000+0 -23513-1 0  9994
2 67956  42.9992 128.3666 0000943 267.8862 236.7161 15.62847129  5047
STARLINK-36829          
1 67957U 26037AB  26080.16667824 -.01891579  00000+0 -26323-1 0  9996
2 67957  42.9990 128.5402 0001256 269.9779 164.9489 15.59426256  5049
STARLINK-36799          
1 67958U 26037AC  26080.16667824 -.01948134  00000+0 -18738-1 0  9998
2 67958  42.9992 128.1513 0001118 262.4041 328.8156 15.68744389  5040
STARLINK-36834          
1 67959U 26037AD  26080.16667824 -.01903522  00000+0 -26724-1 0  9995
2 67959  42.9991 128.4968 0001332 275.9566 176.0655 15.59217858  5049
STARLINK-36841          
1 67960U 26037AE  26080.16667824 -.01901237  00000+0 -25702-1 0  9993
2 67960  42.9990 128.4607 0001233 274.5889 191.9409 15.60192795  5040
STARLINK-36912          
1 67961U 26038A   26080.16667824 -.02333074  00000+0 -39581-1 0  9994
2 67961  97.2844  90.9817 0001827  79.6447 125.7519 15.55071235  5047
