OBJECT_NAME,OBJECT_ID,EPOCH,MEAN_MOTION,ECCENTRICITY,INCLINATION,RA_OF_ASC_NODE,ARG_OF_PERICENTER,MEAN_ANOMALY,NORAD_CAT_ID,ELEMENT_SET_NO,REV_AT_EPOCH,BSTAR,MEAN_MOTION_DOT,MEAN_MOTION_DDOT
STARLINK-36852,2026-037B,2026-03-21T04:00:00.999936,15.50880531,0.00011291,42.9994,129.2403,284.7244,229.492,67933.0,999.0,504.0,-0.010285397,-0.00567951,0.0
STARLINK-36861,2026-037C,2026-03-21T04:00:00.999936,15.64367577,0.00013151,42.9989,128.5559,281.1958,149.13,67934.0,999.0,504.0,-0.022420739,-0.01948968,0.0
STARLINK-36860,2026-037D,2026-03-21T04:00:00.999936,15.56845955,0.00012027,42.9991,128.8889,268.2698,28.0718,67935.0,999.0,504.0,-0.029096512,-0.01894541,0.0
STARLINK-36848,2026-037E,2026-03-21T04:00:00.999936,15.54370507,0.00012559,42.9994,129.007,268.6602,339.8614,67936.0,999.0,504.0,-0.031969814,-0.01897302,0.0
STARLINK-36370,2026-037F,2026-03-21T04:00:00.999936,15.57731398,0.00011886,42.9992,128.8323,261.721,57.7368,67937.0,999.0,504.0,-0.028131224,-0.01894196,0.0
STARLINK-36371,2026-037G,2026-03-21T04:00:00.999936,15.61621771,0.00014093,42.9986,128.6231,273.9729,128.8605,67938.0,999.0,504.0,-0.024248951,-0.01897169,0.0
STARLINK-36246,2026-037H,2026-03-21T04:00:00.999936,15.55170934,0.00012551,42.9991,128.9383,265.9132,10.0573,67939.0,999.0,495.0,-0.0309296,-0.01891709,0.0
STARLINK-36907,2026-037J,2026-03-21T04:00:00.999936,15.66573406,0.00010199,42.9991,128.3907,273.7866,222.1701,67940.0,999.0,504.0,-0.020499378,-0.01948391,0.0
STARLINK-36927,2026-037K,2026-03-21T04:00:00.999936,15.63760775,0.00010038,42.9989,128.4698,278.0207,185.7619,67941.0,999.0,504.0,-0.022741834,-0.01931516,0.0
STARLINK-36914,2026-037L,2026-03-21T04:00:00.999936,15.70755524,8.945e-05,42.9993,128.2929,268.9469,266.5633,67942.0,999.0,504.0,-0.017337003,-0.01959835,0.0
STARLINK-36851,2026-037M,2026-03-21T04:00:00.999936,15.64758056,0.00010428,42.9989,128.4647,272.5859,193.4935,67943.0,999.0,504.0,-0.022114778,-0.01952144,0.0
STARLINK-36892,2026-037N,2026-03-21T04:00:00.999936,15.65562878,0.00010583,42.9987,128.415,274.8749,211.4345,67944.0,999.0,504.0,-0.021391302,-0.01950887,0.0
STARLINK-36908,2026-037P,2026-03-21T04:00:00.999936,15.66400366,9.292e-05,42.999,128.3642,272.4874,233.9764,67945.0,999.0,504.0,-0.020609099,-0.01945349,0.0
STARLINK-36909,2026-037Q,2026-03-21T04:00:00.999936,15.72871803,0.00010465,42.9996,128.181,260.3951,319.4232,67946.0,999.0,504.0,-0.015757635,-0.01951599,0.0
STARLINK-36920,2026-037R,2026-03-21T04:00:00.999936,15.61706902,0.00010796,42.9986,128.5223,275.6841,166.7242,67947.0,999.0,504.0,-0.024743734,-0.01936768,0.0
STARLINK-36873,2026-037S,2026-03-21T04:00:00.999936,15.60436381,0.00013031,42.9993,128.5685,275.4146,148.7974,67948.0,999.0,504.0,-0.025256446,-0.01887801,0.0
STARLINK-36863,2026-037T,2026-03-21T04:00:00.999936,15.65030739,9.588e-05,42.999,128.3693,267.6545,236.6486,67949.0,999.0,504.0,-0.021799611,-0.01946314,0.0
STARLINK-36887,2026-037U,2026-03-21T04:00:00.999936,15.50625793,0.00014213,42.9992,129.0807,292.1338,285.0626,67950.0,999.0,504.0,-0.002178666,-0.00126323,0.0
STARLINK-36897,2026-037V,2026-03-21T04:00:00.999936,15.64005574,0.00010545,42.9993,128.3853,277.2415,220.1714,67951.0,999.0,504.0,-0.022634888,-0.01940209,0.0
STARLINK-36381,2026-037W,2026-03-21T04:00:00.999936,15.62512031,0.00010018,42.9992,128.4241,276.2499,205.6392,67952.0,999.0,504.0,-0.023894617,-0.01931247,0.0
STARLINK-36824,2026-037X,2026-03-21T04:00:00.999936,15.52959366,8.851e-05,42.9993,128.9285,267.5031,11.577,67953.0,999.0,504.0,-0.03148602,-0.0178758,0.0
STARLINK-36869,2026-037Y,2026-03-21T04:00:00.999936,15.53014121,0.00015263,42.9998,128.9197,272.7681,9.5053,67954.0,999.0,504.0,-0.039236289,-0.02217273,0.0
STARLINK-36872,2026-037Z,2026-03-21T04:00:00.999936,15.66277256,0.00010111,42.9994,128.2491,262.4802,289.3185,67955.0,999.0,504.0,-0.020735319,-0.01947262,0.0
STARLINK-36918,2026-037AA,2026-03-21T04:00:00.999936,15.62847129,9.435e-05,42.9992,128.3666,267.8862,236.7161,67956.0,999.0,504.0,-0.023513062,-0.01926382,0.0
STARLINK-36829,2026-037AB,2026-03-21T04:00:00.999936,15.59426256,0.00012564,42.999,128.5402,269.9779,164.9489,67957.0,999.0,504.0,-0.02632277,-0.01891579,0.0
STARLINK-36799,2026-037AC,2026-03-21T04:00:00.999936,15.68744389,0.00011182,42.9992,128.1513,262.4041,328.8156,67958.0,999.0,504.0,-0.018738126,-0.01948134,0.0
STARLINK-36834,2026-037AD,2026-03-21T04:00:00.999936,15.59217858,0.00013321,42.9991,128.4968,275.9566,176.0655,67959.0,999.0,504.0,-0.026723822,-0.01903522,0.0
STARLINK-36841,2026-037AE,2026-03-21T04:00:00.999936,15.60192795,0.00012332,42.999,128.4607,274.5889,191.9409,67960.0,999.0,504.0,-0.025702456,-0.01901237,0.0
STARLINK-36912,2026-038A,2026-03-21T04:00:00.999936,15.55071235,0.0001827,97.2844,90.9817,79.6447,125.7519,67961.0,999.0,504.0,-0.039581041,-0.02333074,0.0
